EOS-4                   
1 51656U 22013A   26067.48836365  .00002825  00000+0  16489-3 0  9992
2 51656  97.5144  75.6612 0001929  90.8949 269.2503 15.12745091224260
STARLINK-4636           
1 53731U 22107AH  26068.89790396  .00028566  00000+0  16595-2 0  9998
2 53731  53.2130 252.5823 0005397 143.7657 216.3703 15.11900784194629
